TOMORROW-S2             
1 60485U 24149T   26068.75188364  .00008133  00000+0  27683-3 0  9990
2 60485  97.3857 150.0385 0001648 234.3331 125.7757 15.30674935 86869
STARLINK-35347          
1 65907U 25224AB  26068.08212463  .00014707  00000+0  50774-3 0  9994
2 65907  53.1589  13.9958 0000964  95.9175 264.1936 15.30197663 24761
